[{"OBJECT_NAME":"STARLINK-32459","OBJECT_ID":"2024-196J","EPOCH":"2026-03-09T11:08:32.486496","MEAN_MOTION":15.30222698,"ECCENTRICITY":8.076e-5,"INCLINATION":53.1602,"RA_OF_ASC_NODE":102.2746,"ARG_OF_PERICENTER":100.2867,"MEAN_ANOMALY":259.8225,"EPHEMERIS_TYPE":0,"CLASSIFICATION_TYPE":"U","NORAD_CAT_ID":61715,"ELEMENT_SET_NO":999,"REV_AT_EPOCH":7712,"BSTAR":-0.00023248969,"MEAN_MOTION_DOT":-7.243e-5,"MEAN_MOTION_DDOT":0},{"OBJECT_NAME":"THORAD AGENA D DEB","OBJECT_ID":"1969-082CP","EPOCH":"2026-03-09T22:51:31.947840","MEAN_MOTION":15.31252047,"ECCENTRICITY":0.00108961,"INCLINATION":69.8927,"RA_OF_ASC_NODE":265.8646,"ARG_OF_PERICENTER":335.0972,"MEAN_ANOMALY":24.9676,"EPHEMERIS_TYPE":0,"CLASSIFICATION_TYPE":"U","NORAD_CAT_ID":4133,"ELEMENT_SET_NO":999,"REV_AT_EPOCH":97550,"BSTAR":0.0018489552,"MEAN_MOTION_DOT":0.00056347,"MEAN_MOTION_DDOT":0}]
